CCSDS_OMM_VERS = 2.0
CREATION_DATE  = 
ORIGINATOR     = 

OBJECT_NAME    = STARLINK-36342
OBJECT_ID      = 2026-022B
CENTER_NAME    = EARTH
REF_FRAME      = TEME
TIME_SYSTEM    = UTC
MEAN_ELEMENT_THEORY = SGP/SGP4

EPOCH          = 2026-02-10T04:00:01.999584
MEAN_MOTION    = 15.93869889
ECCENTRICITY   = .0001295
INCLINATION    = 97.2831
RA_OF_ASC_NODE = 73.6989
ARG_OF_PERICENTER = 90.6413
MEAN_ANOMALY   = 154.5899

EPHEMERIS_TYPE = 0
CLASSIFICATION_TYPE = U
NORAD_CAT_ID   = 67649
ELEMENT_SET_NO = 999
REV_AT_EPOCH   = 246
BSTAR          = -.50295E-2
MEAN_MOTION_DOT = -.1808737E-1
MEAN_MOTION_DDOT = .92064E-3

CCSDS_OMM_VERS = 2.0
CREATION_DATE  = 
ORIGINATOR     = 

OBJECT_NAME    = STARLINK-36703
OBJECT_ID      = 2026-022C
CENTER_NAME    = EARTH
REF_FRAME      = TEME
TIME_SYSTEM    = UTC
MEAN_ELEMENT_THEORY = SGP/SGP4

EPOCH          = 2026-02-10T04:00:01.999584
MEAN_MOTION    = 15.94051561
ECCENTRICITY   = .0001342
INCLINATION    = 97.2829
RA_OF_ASC_NODE = 73.7002
ARG_OF_PERICENTER = 78.8207
MEAN_ANOMALY   = 169.3808

EPHEMERIS_TYPE = 0
CLASSIFICATION_TYPE = U
NORAD_CAT_ID   = 67650
ELEMENT_SET_NO = 999
REV_AT_EPOCH   = 246
BSTAR          = -.49829E-2
MEAN_MOTION_DOT = -.1809163E-1
MEAN_MOTION_DDOT = .9228E-3

CCSDS_OMM_VERS = 2.0
CREATION_DATE  = 
ORIGINATOR     = 

OBJECT_NAME    = STARLINK-36696
OBJECT_ID      = 2026-022D
CENTER_NAME    = EARTH
REF_FRAME      = TEME
TIME_SYSTEM    = UTC
MEAN_ELEMENT_THEORY = SGP/SGP4

EPOCH          = 2026-02-10T04:00:01.999584
MEAN_MOTION    = 15.94243151
ECCENTRICITY   = .0001311
INCLINATION    = 97.2826
RA_OF_ASC_NODE = 73.7014
ARG_OF_PERICENTER = 77.1813
MEAN_ANOMALY   = 174.1260

EPHEMERIS_TYPE = 0
CLASSIFICATION_TYPE = U
NORAD_CAT_ID   = 67651
ELEMENT_SET_NO = 999
REV_AT_EPOCH   = 246
BSTAR          = -.49204E-2
MEAN_MOTION_DOT = -.1804596E-1
MEAN_MOTION_DDOT = .9203E-3

CCSDS_OMM_VERS = 2.0
CREATION_DATE  = 
ORIGINATOR     = 

OBJECT_NAME    = STARLINK-36699
OBJECT_ID      = 2026-022E
CENTER_NAME    = EARTH
REF_FRAME      = TEME
TIME_SYSTEM    = UTC
MEAN_ELEMENT_THEORY = SGP/SGP4

EPOCH          = 2026-02-10T04:00:01.999584
MEAN_MOTION    = 15.94409884
ECCENTRICITY   = .0001243
INCLINATION    = 97.2825
RA_OF_ASC_NODE = 73.7026
ARG_OF_PERICENTER = 87.4750
MEAN_ANOMALY   = 166.5092

EPHEMERIS_TYPE = 0
CLASSIFICATION_TYPE = U
NORAD_CAT_ID   = 67652
ELEMENT_SET_NO = 999
REV_AT_EPOCH   = 246
BSTAR          = -.48926E-2
MEAN_MOTION_DOT = -.1810163E-1
MEAN_MOTION_DDOT = .92724E-3

CCSDS_OMM_VERS = 2.0
CREATION_DATE  = 
ORIGINATOR     = 

OBJECT_NAME    = STARLINK-36694
OBJECT_ID      = 2026-022F
CENTER_NAME    = EARTH
REF_FRAME      = TEME
TIME_SYSTEM    = UTC
MEAN_ELEMENT_THEORY = SGP/SGP4

EPOCH          = 2026-02-10T04:00:01.999584
MEAN_MOTION    = 15.94611035
ECCENTRICITY   = .0001212
INCLINATION    = 97.2826
RA_OF_ASC_NODE = 73.7042
ARG_OF_PERICENTER = 86.3042
MEAN_ANOMALY   = 171.0759

EPHEMERIS_TYPE = 0
CLASSIFICATION_TYPE = U
NORAD_CAT_ID   = 67653
ELEMENT_SET_NO = 999
REV_AT_EPOCH   = 246
BSTAR          = -.47665E-2
MEAN_MOTION_DOT = -.1782686E-1
MEAN_MOTION_DDOT = .90302E-3

CCSDS_OMM_VERS = 2.0
CREATION_DATE  = 
ORIGINATOR     = 

OBJECT_NAME    = STARLINK-36620
OBJECT_ID      = 2026-022G
CENTER_NAME    = EARTH
REF_FRAME      = TEME
TIME_SYSTEM    = UTC
MEAN_ELEMENT_THEORY = SGP/SGP4

EPOCH          = 2026-02-10T04:00:01.999584
MEAN_MOTION    = 15.94795481
ECCENTRICITY   = .0001289
INCLINATION    = 97.2822
RA_OF_ASC_NODE = 73.7051
ARG_OF_PERICENTER = 81.2628
MEAN_ANOMALY   = 179.0942

EPHEMERIS_TYPE = 0
CLASSIFICATION_TYPE = U
NORAD_CAT_ID   = 67654
ELEMENT_SET_NO = 999
REV_AT_EPOCH   = 246
BSTAR          = -.47281E-2
MEAN_MOTION_DOT = -.1785658E-1
MEAN_MOTION_DDOT = .9076E-3

CCSDS_OMM_VERS = 2.0
CREATION_DATE  = 
ORIGINATOR     = 

OBJECT_NAME    = STARLINK-36720
OBJECT_ID      = 2026-022H
CENTER_NAME    = EARTH
REF_FRAME      = TEME
TIME_SYSTEM    = UTC
MEAN_ELEMENT_THEORY = SGP/SGP4

EPOCH          = 2026-02-10T04:00:01.999584
MEAN_MOTION    = 15.95014683
ECCENTRICITY   = .0001207
INCLINATION    = 97.2824
RA_OF_ASC_NODE = 73.7069
ARG_OF_PERICENTER = 82.1386
MEAN_ANOMALY   = 181.6499

EPHEMERIS_TYPE = 0
CLASSIFICATION_TYPE = U
NORAD_CAT_ID   = 67655
ELEMENT_SET_NO = 999
REV_AT_EPOCH   = 246
BSTAR          = -.46695E-2
MEAN_MOTION_DOT = -.1784137E-1
MEAN_MOTION_DDOT = .90827E-3

CCSDS_OMM_VERS = 2.0
CREATION_DATE  = 
ORIGINATOR     = 

OBJECT_NAME    = STARLINK-36688
OBJECT_ID      = 2026-022J
CENTER_NAME    = EARTH
REF_FRAME      = TEME
TIME_SYSTEM    = UTC
MEAN_ELEMENT_THEORY = SGP/SGP4

EPOCH          = 2026-02-10T04:00:01.999584
MEAN_MOTION    = 15.95170644
ECCENTRICITY   = .0001311
INCLINATION    = 97.2819
RA_OF_ASC_NODE = 73.7076
ARG_OF_PERICENTER = 73.0963
MEAN_ANOMALY   = 193.2456

EPHEMERIS_TYPE = 0
CLASSIFICATION_TYPE = U
NORAD_CAT_ID   = 67656
ELEMENT_SET_NO = 999
REV_AT_EPOCH   = 246
BSTAR          = -.46415E-2
MEAN_MOTION_DOT = -.1788206E-1
MEAN_MOTION_DDOT = .91366E-3

CCSDS_OMM_VERS = 2.0
CREATION_DATE  = 
ORIGINATOR     = 

OBJECT_NAME    = STARLINK-36706
OBJECT_ID      = 2026-022K
CENTER_NAME    = EARTH
REF_FRAME      = TEME
TIME_SYSTEM    = UTC
MEAN_ELEMENT_THEORY = SGP/SGP4

EPOCH          = 2026-02-10T04:00:01.999584
MEAN_MOTION    = 15.95342009
ECCENTRICITY   = .0001183
INCLINATION    = 97.2816
RA_OF_ASC_NODE = 73.7085
ARG_OF_PERICENTER = 78.3223
MEAN_ANOMALY   = 190.9274

EPHEMERIS_TYPE = 0
CLASSIFICATION_TYPE = U
NORAD_CAT_ID   = 67657
ELEMENT_SET_NO = 999
REV_AT_EPOCH   = 244
BSTAR          = -.45537E-2
MEAN_MOTION_DOT = -.1770649E-1
MEAN_MOTION_DDOT = .8986E-3

CCSDS_OMM_VERS = 2.0
CREATION_DATE  = 
ORIGINATOR     = 

OBJECT_NAME    = STARLINK-36701
OBJECT_ID      = 2026-022L
CENTER_NAME    = EARTH
REF_FRAME      = TEME
TIME_SYSTEM    = UTC
MEAN_ELEMENT_THEORY = SGP/SGP4

EPOCH          = 2026-02-10T04:00:01.999584
MEAN_MOTION    = 15.95538626
ECCENTRICITY   = .0001301
INCLINATION    = 97.2816
RA_OF_ASC_NODE = 73.7105
ARG_OF_PERICENTER = 80.5800
MEAN_ANOMALY   = 191.8563

EPHEMERIS_TYPE = 0
CLASSIFICATION_TYPE = U
NORAD_CAT_ID   = 67658
ELEMENT_SET_NO = 999
REV_AT_EPOCH   = 246
BSTAR          = -.44845E-2
MEAN_MOTION_DOT = -.1762264E-1
MEAN_MOTION_DDOT = .89254E-3

CCSDS_OMM_VERS = 2.0
CREATION_DATE  = 
ORIGINATOR     = 

OBJECT_NAME    = STARLINK-36642
OBJECT_ID      = 2026-022M
CENTER_NAME    = EARTH
REF_FRAME      = TEME
TIME_SYSTEM    = UTC
MEAN_ELEMENT_THEORY = SGP/SGP4

EPOCH          = 2026-02-10T04:00:01.999584
MEAN_MOTION    = 15.95675145
ECCENTRICITY   = .000119
INCLINATION    = 97.2817
RA_OF_ASC_NODE = 73.7116
ARG_OF_PERICENTER = 88.9537
MEAN_ANOMALY   = 185.8473

EPHEMERIS_TYPE = 0
CLASSIFICATION_TYPE = U
NORAD_CAT_ID   = 67659
ELEMENT_SET_NO = 999
REV_AT_EPOCH   = 246
BSTAR          = -.44345E-2
MEAN_MOTION_DOT = -.1755456E-1
MEAN_MOTION_DDOT = .8874E-3

CCSDS_OMM_VERS = 2.0
CREATION_DATE  = 
ORIGINATOR     = 

OBJECT_NAME    = STARLINK-36673
OBJECT_ID      = 2026-022N
CENTER_NAME    = EARTH
REF_FRAME      = TEME
TIME_SYSTEM    = UTC
MEAN_ELEMENT_THEORY = SGP/SGP4

EPOCH          = 2026-02-10T04:00:01.999584
MEAN_MOTION    = 15.95872479
ECCENTRICITY   = .0001178
INCLINATION    = 97.2812
RA_OF_ASC_NODE = 73.7124
ARG_OF_PERICENTER = 85.8987
MEAN_ANOMALY   = 192.0543

EPHEMERIS_TYPE = 0
CLASSIFICATION_TYPE = U
NORAD_CAT_ID   = 67660
ELEMENT_SET_NO = 999
REV_AT_EPOCH   = 246
BSTAR          = -.43826E-2
MEAN_MOTION_DOT = -.1753391E-1
MEAN_MOTION_DDOT = .88733E-3

