STARLINK-36342          
1 67649U 26022B   26041.16668981 -.01808737  92064-3 -50295-2 0  9995
2 67649  97.2831  73.6989 0001295  90.6413 154.5899 15.93869889  2465
STARLINK-36703          
1 67650U 26022C   26041.16668981 -.01809163  92280-3 -49829-2 0  9992
2 67650  97.2829  73.7002 0001342  78.8207 169.3808 15.94051561  2468
STARLINK-36696          
1 67651U 26022D   26041.16668981 -.01804596  92030-3 -49204-2 0  9998
2 67651  97.2826  73.7014 0001311  77.1813 174.1260 15.94243151  2464
STARLINK-36699          
1 67652U 26022E   26041.16668981 -.01810163  92724-3 -48926-2 0  9996
2 67652  97.2825  73.7026 0001243  87.4750 166.5092 15.94409884  2460
STARLINK-36694          
1 67653U 26022F   26041.16668981 -.01782686  90302-3 -47665-2 0  9994
2 67653  97.2826  73.7042 0001212  86.3042 171.0759 15.94611035  2462
STARLINK-36620          
1 67654U 26022G   26041.16668981 -.01785658  90760-3 -47281-2 0  9999
2 67654  97.2822  73.7051 0001289  81.2628 179.0942 15.94795481  2467
STARLINK-36720          
1 67655U 26022H   26041.16668981 -.01784137  90827-3 -46695-2 0  9993
2 67655  97.2824  73.7069 0001207  82.1386 181.6499 15.95014683  2465
STARLINK-36688          
1 67656U 26022J   26041.16668981 -.01788206  91366-3 -46415-2 0  9994
2 67656  97.2819  73.7076 0001311  73.0963 193.2456 15.95170644  2466
STARLINK-36706          
1 67657U 26022K   26041.16668981 -.01770649  89860-3 -45537-2 0  9997
2 67657  97.2816  73.7085 0001183  78.3223 190.9274 15.95342009  2444
STARLINK-36701          
1 67658U 26022L   26041.16668981 -.01762264  89254-3 -44845-2 0  9990
2 67658  97.2816  73.7105 0001301  80.5800 191.8563 15.95538626  2461
STARLINK-36642          
1 67659U 26022M   26041.16668981 -.01755456  88740-3 -44345-2 0  9990
2 67659  97.2817  73.7116 0001190  88.9537 185.8473 15.95675145  2461
STARLINK-36673          
1 67660U 26022N   26041.16668981 -.01753391  88733-3 -43826-2 0  9993
2 67660  97.2812  73.7124 0001178  85.8987 192.0543 15.95872479  2465
